OBJECT_NAME,OBJECT_ID,EPOCH,MEAN_MOTION,ECCENTRICITY,INCLINATION,RA_OF_ASC_NODE,ARG_OF_PERICENTER,MEAN_ANOMALY,EPHEMERIS_TYPE,CLASSIFICATION_TYPE,NORAD_CAT_ID,ELEMENT_SET_NO,REV_AT_EPOCH,BSTAR,MEAN_MOTION_DOT,MEAN_MOTION_DDOT
ONEWEB-0053,2020-008AC,2026-07-11T00:33:51.573312,13.10369046,.00016,87.8802,31.5335,69.9968,290.1332,0,U,45157,999,31103,.34794E-4,.25E-6,0
ONEWEB-0054,2020-008AD,2026-07-10T23:35:14.471232,13.10378157,.0001895,87.8825,31.5263,86.1766,273.9578,0,U,45158,999,31114,-.53381E-3,-.174E-5,0
ONEWEB-0056,2020-008AE,2026-07-10T11:53:44.153088,13.10369542,.00020683,87.8822,31.6172,84.7585,275.3778,0,U,45159,999,31123,-.98082713E-3,-.33E-5,0
ONEWEB-0057,2020-008AF,2026-07-10T23:18:17.920800,13.10372973,.0001644,87.8820,31.5342,69.9731,290.1573,0,U,45160,999,31146,-.16846E-2,-.575E-5,0
ONEWEB-0058,2020-008AG,2026-07-10T11:59:33.180576,13.10372117,.00017636,87.8814,31.6325,94.4548,265.6781,0,U,45161,999,31147,-.15329225E-2,-.522E-5,0
ONEWEB-0059,2020-008AH,2026-07-10T22:53:54.086208,13.10367661,.0001561,87.8806,31.5401,85.8636,274.2670,0,U,45162,999,31143,-.76427E-3,-.254E-5,0
ONEWEB-0062,2020-008AJ,2026-07-10T23:27:41.045760,13.10375597,.0001989,87.8830,31.5260,94.5268,265.6086,0,U,45163,999,31130,-.15153E-2,-.516E-5,0
ONEWEB-0065,2020-008AK,2026-07-11T00:16:34.703328,13.10373639,.0001883,87.8819,31.5264,76.7587,283.3751,0,U,45164,999,31100,.17654E-2,.629E-5,0
ONEWEB-0066,2020-020A,2026-07-10T11:50:39.314112,13.11421991,.00017009,87.8876,16.4293,92.2674,267.8649,0,U,45424,999,30573,.11250245E-2,.411E-5,0
ONEWEB-0067,2020-020B,2026-07-09T18:26:19.310784,13.11424505,.00017808,87.8895,16.4996,85.0758,275.0574,0,U,45425,999,30569,-.10980518E-2,-.377E-5,0
ONEWEB-0080,2020-020C,2026-07-10T23:43:46.430112,13.11414308,.0002014,87.8891,16.3298,98.3355,261.8001,0,U,45426,999,30582,-.65509E-3,-.219E-5,0
ONEWEB-0090,2020-020D,2026-07-10T22:35:24.429408,13.11418929,.0001871,87.8890,16.3426,91.0643,269.0699,0,U,45427,999,30578,-.37882E-3,-.122E-5,0
ONEWEB-0061,2020-020E,2026-07-09T23:33:07.512480,13.11414616,.00018012,87.8883,16.5191,90.1002,270.0332,0,U,45428,999,30561,.68011779E-3,.254E-5,0
ONEWEB-0081,2020-020F,2026-07-10T22:54:44.983584,13.11417658,.0001646,87.8885,16.3341,87.5177,272.6140,0,U,45429,999,30585,.12615E-2,.46E-5,0
ONEWEB-0069,2020-020G,2026-07-10T22:57:23.740992,13.11419816,.0001628,87.8886,16.3372,90.5514,269.5801,0,U,45430,999,30578,.13475E-2,.49E-5,0
ONEWEB-0031,2020-020H,2026-07-10T10:59:24.069408,13.11416118,.00019054,87.8874,16.4397,94.2991,265.8355,0,U,45431,999,30570,-.11692742E-2,-.402E-5,0
ONEWEB-0027,2020-020J,2026-07-10T10:07:03.068256,13.17665526,.00023952,87.9124,1.2433,95.9322,264.2082,0,U,45432,999,30941,-.67724919E-2,-.2617E-4,0
ONEWEB-0064,2020-020K,2026-07-09T18:28:07.099968,13.11415589,.00020385,87.8884,16.5703,92.2530,267.8831,0,U,45433,999,30564,-.1026037E-2,-.351E-5,0
ONEWEB-0018,2020-020L,2026-07-10T22:42:19.653984,13.11418315,.0001528,87.8876,16.3359,100.6841,259.4459,0,U,45434,999,30574,.62249E-3,.233E-5,0
ONEWEB-0083,2020-020M,2026-07-09T11:40:36.331104,13.11418856,.00018496,87.8888,16.6206,91.8186,268.3154,0,U,45435,999,30559,-.10819232E-3,-.26E-6,0
ONEWEB-0095,2020-020N,2026-07-10T11:16:39.513792,13.11417112,.00024364,87.8886,16.4335,79.3710,280.7692,0,U,45436,999,30572,-.14557171E-2,-.503E-5,0
ONEWEB-0092,2020-020P,2026-07-10T22:59:49.921152,13.11414896,.0001676,87.8886,16.3274,94.9384,265.1935,0,U,45437,999,30590,.14511E-2,.527E-5,0
ONEWEB-0085,2020-020Q,2026-07-09T11:40:12.438048,13.11418366,.0001849,87.8880,16.6262,89.6746,270.4594,0,U,45438,999,30559,-.1397658E-3,-.37E-6,0
ONEWEB-0096,2020-020R,2026-07-09T11:42:50.472288,13.11418171,.0001971,87.8888,16.6228,88.3212,271.8141,0,U,45439,999,30558,.74646732E-4,.39E-6,0
ONEWEB-0037,2020-020S,2026-07-10T23:08:09.225024,13.11416895,.0002,87.8894,16.3016,89.7458,270.3899,0,U,45440,999,30581,.86206E-3,.318E-5,0
ONEWEB-0042,2020-020T,2026-07-10T11:16:16.170240,13.11417430,.00017572,87.8884,16.4240,87.1831,272.9498,0,U,45441,999,30571,-.12596541E-2,-.434E-5,0
ONEWEB-0098,2020-020U,2026-07-10T11:10:20.722368,13.11415072,.00018395,87.8885,16.4333,92.1535,267.9803,0,U,45442,999,30569,-.12709231E-2,-.438E-5,0
ONEWEB-0055,2020-020V,2026-07-10T10:39:39.611808,13.11413816,.00019736,87.8887,16.4366,93.9408,266.1946,0,U,45443,999,30566,.62569717E-3,.234E-5,0
ONEWEB-0093,2020-020W,2026-07-10T23:07:31.038816,13.10892447,.0001529,87.8883,16.3284,87.3928,272.7374,0,U,45444,999,30579,.1813E-2,.65E-5,0
ONEWEB-0029,2020-020X,2026-07-10T23:38:53.501280,13.11413640,.00016,87.8880,16.3294,90.0262,270.1049,0,U,45445,999,30577,-.3504E-3,-.111E-5,0
