ONEWEB-0053             
1 45157U 20008AC  26192.02351358  .00000025  00000+0  34794-4 0  9996
2 45157  87.8802  31.5335 0001600  69.9968 290.1332 13.10369046311032
ONEWEB-0054             
1 45158U 20008AD  26191.98280638 -.00000174  00000+0 -53381-3 0  9992
2 45158  87.8825  31.5263 0001895  86.1766 273.9578 13.10378157311147
ONEWEB-0056             
1 45159U 20008AE  26191.49564992 -.00000330  00000+0 -98083-3 0  9999
2 45159  87.8822  31.6172 0002068  84.7585 275.3778 13.10369542311237
ONEWEB-0057             
1 45160U 20008AF  26191.97104075 -.00000575  00000+0 -16846-2 0  9993
2 45160  87.8820  31.5342 0001644  69.9731 290.1573 13.10372973311467
ONEWEB-0058             
1 45161U 20008AG  26191.49968959 -.00000522  00000+0 -15329-2 0  9997
2 45161  87.8814  31.6325 0001763  94.4548 265.6781 13.10372117311473
ONEWEB-0059             
1 45162U 20008AH  26191.95409822 -.00000254  00000+0 -76427-3 0  9997
2 45162  87.8806  31.5401 0001561  85.8636 274.2670 13.10367661311434
ONEWEB-0062             
1 45163U 20008AJ  26191.97755840 -.00000516  00000+0 -15153-2 0  9993
2 45163  87.8830  31.5260 0001989  94.5268 265.6086 13.10375597311305
ONEWEB-0065             
1 45164U 20008AK  26192.01151277  .00000629  00000+0  17654-2 0  9995
2 45164  87.8819  31.5264 0001883  76.7587 283.3751 13.10373639311004
ONEWEB-0066             
1 45424U 20020A   26191.49351058  .00000411  00000+0  11250-2 0  9993
2 45424  87.8876  16.4293 0001700  92.2674 267.8649 13.11421991305730
ONEWEB-0067             
1 45425U 20020B   26190.76827906 -.00000377  00000+0 -10981-2 0  9996
2 45425  87.8895  16.4996 0001780  85.0758 275.0574 13.11424505305690
ONEWEB-0080             
1 45426U 20020C   26191.98873183 -.00000219  00000+0 -65509-3 0  9992
2 45426  87.8891  16.3298 0002014  98.3355 261.8001 13.11414308305825
ONEWEB-0090             
1 45427U 20020D   26191.94125497 -.00000122  00000+0 -37882-3 0  9993
2 45427  87.8890  16.3426 0001871  91.0643 269.0699 13.11418929305789
ONEWEB-0061             
1 45428U 20020E   26190.98133695  .00000254  00000+0  68012-3 0  9999
2 45428  87.8883  16.5191 0001801  90.1002 270.0332 13.11414616305612
ONEWEB-0081             
1 45429U 20020F   26191.95468731  .00000460  00000+0  12615-2 0  9996
2 45429  87.8885  16.3341 0001646  87.5177 272.6140 13.11417658305850
ONEWEB-0069             
1 45430U 20020G   26191.95652478  .00000490  00000+0  13475-2 0  9999
2 45430  87.8886  16.3372 0001628  90.5514 269.5801 13.11419816305785
ONEWEB-0031             
1 45431U 20020H   26191.45791747 -.00000402  00000+0 -11693-2 0  9993
2 45431  87.8874  16.4397 0001905  94.2991 265.8355 13.11416118305706
ONEWEB-0027             
1 45432U 20020J   26191.42156329 -.00002617  00000+0 -67725-2 0  9999
2 45432  87.9124   1.2433 0002395  95.9322 264.2082 13.17665526309416
ONEWEB-0064             
1 45433U 20020K   26190.76952662 -.00000351  00000+0 -10260-2 0  9995
2 45433  87.8884  16.5703 0002038  92.2530 267.8831 13.11415589305641
ONEWEB-0018             
1 45434U 20020L   26191.94606081  .00000233  00000+0  62249-3 0  9990
2 45434  87.8876  16.3359 0001528 100.6841 259.4459 13.11418315305744
ONEWEB-0083             
1 45435U 20020M   26190.48653161 -.00000026  00000+0 -10819-3 0  9998
2 45435  87.8888  16.6206 0001849  91.8186 268.3154 13.11418856305595
ONEWEB-0095             
1 45436U 20020N   26191.46990178 -.00000503  00000+0 -14557-2 0  9992
2 45436  87.8886  16.4335 0002436  79.3710 280.7692 13.11417112305726
ONEWEB-0092             
1 45437U 20020P   26191.95821668  .00000527  00000+0  14511-2 0  9998
2 45437  87.8886  16.3274 0001676  94.9384 265.1935 13.11414896305906
ONEWEB-0085             
1 45438U 20020Q   26190.48625507 -.00000037  00000+0 -13977-3 0  9994
2 45438  87.8880  16.6262 0001849  89.6746 270.4594 13.11418366305597
ONEWEB-0096             
1 45439U 20020R   26190.48808417  .00000039  00000+0  74647-4 0  9990
2 45439  87.8888  16.6228 0001971  88.3212 271.8141 13.11418171305584
ONEWEB-0037             
1 45440U 20020S   26191.96399566  .00000318  00000+0  86206-3 0  9999
2 45440  87.8894  16.3016 0002000  89.7458 270.3899 13.11416895305817
ONEWEB-0042             
1 45441U 20020T   26191.46963160 -.00000434  00000+0 -12597-2 0  9994
2 45441  87.8884  16.4240 0001757  87.1831 272.9498 13.11417430305710
ONEWEB-0098             
1 45442U 20020U   26191.46551762 -.00000438  00000+0 -12709-2 0  9995
2 45442  87.8885  16.4333 0001839  92.1535 267.9803 13.11415072305694
ONEWEB-0055             
1 45443U 20020V   26191.44420847  .00000234  00000+0  62570-3 0  9997
2 45443  87.8887  16.4366 0001973  93.9408 266.1946 13.11413816305660
ONEWEB-0093             
1 45444U 20020W   26191.96355369  .00000650  00000+0  18130-2 0  9995
2 45444  87.8883  16.3284 0001529  87.3928 272.7374 13.10892447305798
ONEWEB-0029             
1 45445U 20020X   26191.98534145 -.00000111  00000+0 -35040-3 0  9993
2 45445  87.8880  16.3294 0001600  90.0262 270.1049 13.11413640305773
